{
  "norad_id": 68388,
  "name": "STARLINK-37203",
  "history": [
    {
      "epoch": "2026-04-02T18:00:01.999296Z",
      "apogee_km": 278.0833116606382,
      "perigee_km": 275.9017601987607,
      "latitude_deg": 18.73556469622549,
      "longitude_deg": -45.08578024289021,
      "height_km": 279.6926917583775,
      "semi_major_axis_km": 6655.129535929699,
      "eccentricity": 0.0001639,
      "inclination_deg": 97.2824,
      "raan_deg": 233.5467,
      "arg_perigee_deg": 69.22,
      "mean_anomaly_deg": 91.8635,
      "mean_motion_rev_day": 15.99071903
    }
  ]
}